STARLINK-4606           
1 53632U 22104AW  26189.96301560  .00002449  00000+0  17196-3 0  9999
2 53632  53.1614  39.4663 0001321 105.2249 254.8889 15.08833821214530
STARLINK-4593           
1 53633U 22104AX  26189.96668354 -.00001713  00000+0 -89518-4 0  9990
2 53633  53.1609  39.4877 0001748  94.4705 265.6486 15.08842156214209
STARLINK-4592           
1 53634U 22104AY  26189.95562950  .00000925  00000+0  76190-4 0  9999
2 53634  53.1608  39.4199 0001286  95.4037 264.7101 15.08834498214532
STARLINK-4586           
1 53636U 22104BA  26191.00809928 -.00000168  00000+0  75421-5 0  9996
2 53636  53.1601  34.6118 0001375  81.8575 278.2572 15.08833028214697
STARLINK-4396           
1 53637U 22104BB  26189.98239054  .00001410  00000+0  10668-3 0  9998
2 53637  53.1604  39.5767 0001315  88.7782 271.3361 15.08837967214534
STARLINK-4594           
1 53638U 22104BC  26190.98967934  .00001016  00000+0  81928-4 0  9996
2 53638  53.1611  34.4984 0001431  77.8446 282.2706 15.08843297214697
STARLINK-4422           
1 53639U 22104BD  26191.25002315  .00299901  00000+0  32054-2 0  9997
2 53639  53.2172  18.4751 0000920  87.2847  44.7392 15.62403290  5906
STARLINK-4597           
1 53640U 22104BE  26191.00072647  .00001828  00000+0  13291-3 0  9999
2 53640  53.1606  34.5677 0001621  55.6608 304.4537 15.08844038214692
STARLINK-4588           
1 53641U 22104BF  26191.25002315  .00000833  00000+0  59300-4 0  9999
2 53641  53.1596  33.4712 0001805 135.7417 124.7877 15.15645004  5802
STARLINK-4622           
1 53648U 22105A   26189.61678303  .00001175  00000+0  85318-4 0  9998
2 53648  97.2855  67.5474 0001954  90.0592 270.0859 15.05647933211436
STARLINK-4386           
1 53649U 22105B   26191.25002315  .00097125  00000+0  12592-2 0  9998
2 53649  97.6014  76.3800 0001656  82.0374 197.4803 15.58533779  5899
STARLINK-4380           
1 53650U 22105C   26190.08474345 -.00000311  00000+0 -17648-4 0  9998
2 53650  97.2844  67.9749 0002223  89.4002 270.7480 15.05657320211498
STARLINK-4388           
1 53651U 22105D   26191.25002315  .00395704  00000+0  29000-2 0  9997
2 53651  97.6026  77.4128 0001225 103.7812   9.4459 15.71999262  5921
STARLINK-4374           
1 53652U 22105E   26191.09824701  .00000464  00000+0  36084-4 0  9999
2 53652  97.2836  68.8856 0001690  87.6842 272.4580 15.05651856211644
STARLINK-4390           
1 53653U 22105F   26191.10167319  .00021041  00000+0  33619-3 0  9991
2 53653  97.6007  75.3915 0003584 130.6296 229.5269 15.53199903211947
STARLINK-4420           
1 53654U 22105G   26191.08851806  .00000909  00000+0  66861-4 0  9996
2 53654  97.2843  69.9524 0001635  91.3697 268.7718 15.05654911211711
STARLINK-4470           
1 53655U 22105H   26191.12198259  .00004663  00000+0  67606-4 0  9997
2 53655  97.6041  77.2112 0001016   8.0976 352.0295 15.56417369212065
STARLINK-4466           
1 53656U 22105J   26190.54164045  .00000865  00000+0  63855-4 0  9991
2 53656  97.2864  68.3978 0002158  85.6412 274.5063 15.05660362211562
STARLINK-4452           
1 53658U 22105L   26191.11342898  .00000084  00000+0  97180-5 0  9993
2 53658  97.2840  70.0640 0002529  83.8730 276.2786 15.05655975211722
STARLINK-4473           
1 53660U 22105N   26191.13146133  .00006072  00000+0  42457-3 0  9990
2 53660  97.2866  68.9616 0002153  81.2600 278.8872 15.05635955211655
STARLINK-4472           
1 53661U 22105P   26191.09547081  .00001082  00000+0  78893-4 0  9993
2 53661  97.2838  68.8633 0002062  87.1089 273.0374 15.05657261211645
STARLINK-4357           
1 53662U 22105Q   26191.25002315 -.00327300  00000+0 -54008-2 0  9994
2 53662  97.6030  76.7994 0001646  76.2443 192.6616 15.53370595  5766
STARLINK-4457           
1 53663U 22105R   26190.37962228 -.00000648  00000+0 -41003-4 0  9991
2 53663  97.2813  69.3705 0002384  88.2985 271.8516 15.05652749211617
STARLINK-4471           
1 53664U 22105S   26191.14111830  .00000055  00000+0  76947-5 0  9999
2 53664  97.2859  70.0040 0002146  80.0853 280.0617 15.05654251211725
STARLINK-4334           
1 53665U 22105T   26191.25002315  .00071680  00000+0  78422-3 0  9999
2 53665  97.6037  77.0188 0001298 113.8110 266.9080 15.63074593  5903
STARLINK-4406           
1 53667U 22105V   26191.31593360  .00026508  00000+0  75976-3 0  9993
2 53667  97.6005  75.6466 0002101 122.1086 238.0361 15.35880443211989
STARLINK-4458           
1 53668U 22105W   26191.25002315 -.00539827  00000+0 -79498-2 0  9999
2 53668  97.6042  77.3544 0002077  87.6584  95.2962 15.57178682  5921
STARLINK-4464           
1 53669U 22105X   26191.14901665  .00134375  00000+0  17412-2 0  9999
2 53669  97.6024  75.4293 0001061 100.4839 259.6536 15.58416664211952
STARLINK-4459           
1 53670U 22105Y   26191.09955290  .00003114  00000+0  21943-3 0  9999
2 53670  97.2836  70.0380 0001949  87.1545 272.9905 15.05680271211721
STARLINK-4440           
1 53671U 22105Z   26191.08715145  .00000343  00000+0  27662-4 0  9998
2 53671  97.2849  68.8421 0002141  82.5894 277.5577 15.05656009211647
