OBJECT_NAME,OBJECT_ID,EPOCH,MEAN_MOTION,ECCENTRICITY,INCLINATION,RA_OF_ASC_NODE,ARG_OF_PERICENTER,MEAN_ANOMALY,EPHEMERIS_TYPE,CLASSIFICATION_TYPE,NORAD_CAT_ID,ELEMENT_SET_NO,REV_AT_EPOCH,BSTAR,MEAN_MOTION_DOT,MEAN_MOTION_DDOT
STARLINK-4606,2022-104AW,2026-07-08T23:06:44.547840,15.08833821,.00013218,53.1614,39.4663,105.2249,254.8889,0,U,53632,999,21453,.17195559E-3,.2449E-4,0
STARLINK-4593,2022-104AX,2026-07-08T23:12:01.457856,15.08842156,.00017484,53.1609,39.4877,94.4705,265.6486,0,U,53633,999,21420,-.89517612E-4,-.1713E-4,0
STARLINK-4592,2022-104AY,2026-07-08T22:56:06.388800,15.08834498,.00012869,53.1608,39.4199,95.4037,264.7101,0,U,53634,999,21453,.76190059E-4,.925E-5,0
STARLINK-4586,2022-104BA,2026-07-10T00:11:39.777792,15.08833028,.00013756,53.1601,34.6118,81.8575,278.2572,0,U,53636,999,21469,.7542084E-5,-.168E-5,0
STARLINK-4396,2022-104BB,2026-07-08T23:34:38.542656,15.08837967,.00013151,53.1604,39.5767,88.7782,271.3361,0,U,53637,999,21453,.10668005E-3,.141E-4,0
STARLINK-4594,2022-104BC,2026-07-09T23:45:08.294976,15.08843297,.00014311,53.1611,34.4984,77.8446,282.2706,0,U,53638,999,21469,.8192834E-4,.1016E-4,0
STARLINK-4422,2022-104BD,2026-07-10T06:00:02.000160,15.62403290,.00009208,53.2172,18.4751,87.2847,44.7392,0,U,53639,999,590,.32054328E-2,.299901E-2,0
STARLINK-4597,2022-104BE,2026-07-10T00:01:02.767008,15.08844038,.00016213,53.1606,34.5677,55.6608,304.4537,0,U,53640,999,21469,.13291006E-3,.1828E-4,0
STARLINK-4588,2022-104BF,2026-07-10T06:00:02.000160,15.15645004,.00018058,53.1596,33.4712,135.7417,124.7877,0,U,53641,999,580,.59300175E-4,.833E-5,0
STARLINK-4622,2022-105A,2026-07-08T14:48:10.053792,15.05647933,.00019547,97.2855,67.5474,90.0592,270.0859,0,U,53648,999,21143,.85317735E-4,.1175E-4,0
STARLINK-4386,2022-105B,2026-07-10T06:00:02.000160,15.58533779,.0001656,97.6014,76.3800,82.0374,197.4803,0,U,53649,999,589,.12591805E-2,.97125E-3,0
STARLINK-4380,2022-105C,2026-07-09T02:02:01.834080,15.05657320,.00022232,97.2844,67.9749,89.4002,270.7480,0,U,53650,999,21149,-.176481E-4,-.311E-5,0
STARLINK-4388,2022-105D,2026-07-10T06:00:02.000160,15.71999262,.00012254,97.6026,77.4128,103.7812,9.4459,0,U,53651,999,592,.29000337E-2,.395704E-2,0
STARLINK-4374,2022-105E,2026-07-10T02:21:28.541664,15.05651856,.00016905,97.2836,68.8856,87.6842,272.4580,0,U,53652,999,21164,.36083941E-4,.464E-5,0
STARLINK-4390,2022-105F,2026-07-10T02:26:24.563616,15.53199903,.00035849,97.6007,75.3915,130.6296,229.5269,0,U,53653,999,21194,.33619327E-3,.21041E-3,0
STARLINK-4420,2022-105G,2026-07-10T02:07:27.960384,15.05654911,.00016355,97.2843,69.9524,91.3697,268.7718,0,U,53654,999,21171,.66860695E-4,.909E-5,0
STARLINK-4470,2022-105H,2026-07-10T02:55:39.295776,15.56417369,.0001016,97.6041,77.2112,8.0976,352.0295,0,U,53655,999,21206,.67605713E-4,.4663E-4,0
STARLINK-4466,2022-105J,2026-07-09T12:59:57.734880,15.05660362,.00021581,97.2864,68.3978,85.6412,274.5063,0,U,53656,999,21156,.63854659E-4,.865E-5,0
STARLINK-4452,2022-105L,2026-07-10T02:43:20.263872,15.05655975,.00025291,97.2840,70.0640,83.8730,276.2786,0,U,53658,999,21172,.9717981E-5,.84E-6,0
STARLINK-4473,2022-105N,2026-07-10T03:09:18.258912,15.05635955,.00021537,97.2866,68.9616,81.2600,278.8872,0,U,53660,999,21165,.42457247E-3,.6072E-4,0
STARLINK-4472,2022-105P,2026-07-10T02:17:28.677984,15.05657261,.00020629,97.2838,68.8633,87.1089,273.0374,0,U,53661,999,21164,.7889266E-4,.1082E-4,0
STARLINK-4357,2022-105Q,2026-07-10T06:00:02.000160,15.53370595,.00016461,97.6030,76.7994,76.2443,192.6616,0,U,53662,999,576,-.54007704E-2,-.3273E-2,0
STARLINK-4457,2022-105R,2026-07-09T09:06:39.364992,15.05652749,.00023843,97.2813,69.3705,88.2985,271.8516,0,U,53663,999,21161,-.41002817E-4,-.648E-5,0
STARLINK-4471,2022-105S,2026-07-10T03:23:12.621120,15.05654251,.00021469,97.2859,70.0040,80.0853,280.0617,0,U,53664,999,21172,.7694721E-5,.55E-6,0
STARLINK-4334,2022-105T,2026-07-10T06:00:02.000160,15.63074593,.00012987,97.6037,77.0188,113.8110,266.9080,0,U,53665,999,590,.78422085E-3,.7168E-3,0
STARLINK-4406,2022-105V,2026-07-10T07:34:56.663040,15.35880443,.00021012,97.6005,75.6466,122.1086,238.0361,0,U,53667,999,21198,.75975958E-3,.26508E-3,0
STARLINK-4458,2022-105W,2026-07-10T06:00:02.000160,15.57178682,.00020779,97.6042,77.3544,87.6584,95.2962,0,U,53668,999,592,-.79497938E-2,-.539827E-2,0
STARLINK-4464,2022-105X,2026-07-10T03:34:35.038560,15.58416664,.00010615,97.6024,75.4293,100.4839,259.6536,0,U,53669,999,21195,.17411612E-2,.134375E-2,0
STARLINK-4459,2022-105Y,2026-07-10T02:23:21.370560,15.05680271,.00019494,97.2836,70.0380,87.1545,272.9905,0,U,53670,999,21172,.21943279E-3,.3114E-4,0
STARLINK-4440,2022-105Z,2026-07-10T02:05:29.885280,15.05656009,.00021418,97.2849,68.8421,82.5894,277.5577,0,U,53671,999,21164,.2766155E-4,.343E-5,0
